{"type": "FeatureCollection", "features": [ {"type": "Feature", "properties": {"norad_id": 37270, "name": "COSMOS 2251 DEB", "group": "cosmos-2251-debris", "lat": -48.652457031144074, "lon": -27.937187281516866, "alt_km": 870.2256192957648, "timestamp": "2025-12-03T08:58:46.400524+00:00", "meta": {"OBJECT_NAME": "COSMOS 2251 DEB", "OBJECT_ID": "1993-036BHJ", "EPOCH": "2025-12-03T02:09:07.651296", "MEAN_MOTION": 13.5964515, "ECCENTRICITY": 0.0398627, "INCLINATION": 73.9369, "RA_OF_ASC_NODE": 351.6378, "ARG_OF_PERICENTER": 5.2253, "MEAN_ANOMALY": 355.2829, "EPHEMERIS_TYPE": 0, "CLASSIFICATION_TYPE": "U", "NORAD_CAT_ID": 37270, "ELEMENT_SET_NO": 999, "REV_AT_EPOCH": 76938, "BSTAR": 0.0042939, "MEAN_MOTION_DOT": 5.363e-05, "MEAN_MOTION_DDOT": 0}, "tle": {"line1": "1 37270U 93036BHJ 25337.08967189  .00005363  00000+0  42939-2 0  9993", "line2": "2 37270  73.9369 351.6378 0398627   5.2253 355.2829 13.59645150769389"}}, "geometry": {"type": "Point", "coordinates": [-27.937187281516866, -48.652457031144074]}}, {"type": "Feature", "properties": {"norad_id": 37278, "name": "COSMOS 2251 DEB", "group": "cosmos-2251-debris", "lat": -72.85090915862509, "lon": -64.34125275283279, "alt_km": 825.3657346004748, "timestamp": "2025-12-03T08:58:46.400534+00:00", "meta": {"OBJECT_NAME": "COSMOS 2251 DEB", "OBJECT_ID": "1993-036BHS", "EPOCH": "2025-12-02T09:56:27.053664", "MEAN_MOTION": 14.15004215, "ECCENTRICITY": 0.03002048, "INCLINATION": 73.7872, "RA_OF_ASC_NODE": 7.9316, "ARG_OF_PERICENTER": 192.1474, "MEAN_ANOMALY": 231.9822, "EPHEMERIS_TYPE": 0, "CLASSIFICATION_TYPE": "U", "NORAD_CAT_ID": 37278, "ELEMENT_SET_NO": 999, "REV_AT_EPOCH": 63683, "BSTAR": 0.0013681132, "MEAN_MOTION_DOT": 4.07e-05, "MEAN_MOTION_DDOT": 0}, "tle": {"line1": "1 37278U 93036BHS 25336.41420201  .00004070  00000+0  13681-2 0  9992", "line2": "2 37278  73.7872   7.9316 0300204 192.1474 231.9822 14.15004215636832"}}, "geometry": {"type": "Point", "coordinates": [-64.34125275283279, -72.85090915862509]}}, {"type": "Feature", "properties": {"norad_id": 37280, "name": "COSMOS 2251 DEB", "group": "cosmos-2251-debris", "lat": 70.28446190185511, "lon": 126.85083019148843, "alt_km": 875.86018479628, "timestamp": "2025-12-03T08:58:46.400544+00:00", "meta": {"OBJECT_NAME": "COSMOS 2251 DEB", "OBJECT_ID": "1993-036BHU", "EPOCH": "2025-12-02T00:27:32.804352", "MEAN_MOTION": 14.19175148, "ECCENTRICITY": 0.01319076, "INCLINATION": 74.0306, "RA_OF_ASC_NODE": 76.2311, "ARG_OF_PERICENTER": 206.963, "MEAN_ANOMALY": 152.4621, "EPHEMERIS_TYPE": 0, "CLASSIFICATION_TYPE": "U", "NORAD_CAT_ID": 37280, "ELEMENT_SET_NO": 999, "REV_AT_EPOCH": 57171, "BSTAR": 0.0022688373, "MEAN_MOTION_DOT": 5.159e-05, "MEAN_MOTION_DDOT": 0}, "tle": {"line1": "1 37280U 93036BHU 25336.01912968  .00005159  00000+0  22688-2 0  9993", "line2": "2 37280  74.0306  76.2311 0131907 206.9630 152.4621 14.19175148571712"}}, "geometry": {"type": "Point", "coordinates": [126.85083019148843, 70.28446190185511]}}, {"type": "Feature", "properties": {"norad_id": 37284, "name": "COSMOS 2251 DEB", "group": "cosmos-2251-debris", "lat": -56.045826981529615, "lon": 148.11213404720115, "alt_km": 752.9114183680276, "timestamp": "2025-12-03T08:58:46.400554+00:00", "meta": {"OBJECT_NAME": "COSMOS 2251 DEB", "OBJECT_ID": "1993-036BHY", "EPOCH": "2025-12-01T19:55:42.843072", "MEAN_MOTION": 14.12627021, "ECCENTRICITY": 0.01605389, "INCLINATION": 74.0146, "RA_OF_ASC_NODE": 176.0394, "ARG_OF_PERICENTER": 330.0872, "MEAN_ANOMALY": 43.3273, "EPHEMERIS_TYPE": 0, "CLASSIFICATION_TYPE": "U", "NORAD_CAT_ID": 37284, "ELEMENT_SET_NO": 999, "REV_AT_EPOCH": 59021, "BSTAR": 0.0011943881, "MEAN_MOTION_DOT": 2.474e-05, "MEAN_MOTION_DDOT": 0}, "tle": {"line1": "1 37284U 93036BHY 25335.83035698  .00002474  00000+0  11944-2 0  9992", "line2": "2 37284  74.0146 176.0394 0160538 330.0872  43.3273 14.12627021590219"}}, "geometry": {"type": "Point", "coordinates": [148.11213404720115, -56.045826981529615]}}, {"type": "Feature", "properties": {"norad_id": 37295, "name": "COSMOS 2251 DEB", "group": "cosmos-2251-debris", "lat": 7.754665122837604, "lon": -58.081764765266215, "alt_km": 690.5858211909635, "timestamp": "2025-12-03T08:58:46.400564+00:00", "meta": {"OBJECT_NAME": "COSMOS 2251 DEB", "OBJECT_ID": "1993-036BJK", "EPOCH": "2025-12-01T04:30:08.731584", "MEAN_MOTION": 14.65123594, "ECCENTRICITY": 0.00437469, "INCLINATION": 74.0068, "RA_OF_ASC_NODE": 303.8923, "ARG_OF_PERICENTER": 126.7963, "MEAN_ANOMALY": 233.7233, "EPHEMERIS_TYPE": 0, "CLASSIFICATION_TYPE": "U", "NORAD_CAT_ID": 37295, "ELEMENT_SET_NO": 999, "REV_AT_EPOCH": 82135, "BSTAR": 0.00057778641, "MEAN_MOTION_DOT": 3.118e-05, "MEAN_MOTION_DDOT": 0}, "tle": {"line1": "1 37295U 93036BJK 25335.18760106  .00003118  00000+0  57779-3 0  9994", "line2": "2 37295  74.0068 303.8923 0043746 126.7963 233.7233 14.65123594821351"}}, "geometry": {"type": "Point", "coordinates": [-58.081764765266215, 7.754665122837604]}}, {"type": "Feature", "properties": {"norad_id": 37305, "name": "COSMOS 2251 DEB", "group": "cosmos-2251-debris", "lat": 47.708579038568956, "lon": -33.5586178306199, "alt_km": 794.8625897659394, "timestamp": "2025-12-03T08:58:46.400574+00:00", "meta": {"OBJECT_NAME": "COSMOS 2251 DEB", "OBJECT_ID": "1993-036BJV", "EPOCH": "2025-12-01T04:54:57.845088", "MEAN_MOTION": 14.36058989, "ECCENTRICITY": 0.0050534, "INCLINATION": 73.8694, "RA_OF_ASC_NODE": 311.9126, "ARG_OF_PERICENTER": 273.9871, "MEAN_ANOMALY": 85.5504, "EPHEMERIS_TYPE": 0, "CLASSIFICATION_TYPE": "U", "NORAD_CAT_ID": 37305, "ELEMENT_SET_NO": 999, "REV_AT_EPOCH": 66701, "BSTAR": 0.00088749, "MEAN_MOTION_DOT": 2.593e-05, "MEAN_MOTION_DDOT": 0}, "tle": {"line1": "1 37305U 93036BJV 25335.20483617  .00002593  00000+0  88749-3 0  9995", "line2": "2 37305  73.8694 311.9126 0050534 273.9871  85.5504 14.36058989667014"}}, "geometry": {"type": "Point", "coordinates": [-33.5586178306199, 47.708579038568956]}}, {"type": "Feature", "properties": {"norad_id": 37312, "name": "COSMOS 2251 DEB", "group": "cosmos-2251-debris", "lat": 59.57874258642016, "lon": 12.47699556076158, "alt_km": 743.6096489090187, "timestamp": "2025-12-03T08:58:46.400584+00:00", "meta": {"OBJECT_NAME": "COSMOS 2251 DEB", "OBJECT_ID": "1993-036BKC", "EPOCH": "2025-12-03T01:48:10.089792", "MEAN_MOTION": 14.46074055, "ECCENTRICITY": 0.0018167, "INCLINATION": 74.0321, "RA_OF_ASC_NODE": 222.2189, "ARG_OF_PERICENTER": 326.4091, "MEAN_ANOMALY": 33.5914, "EPHEMERIS_TYPE": 0, "CLASSIFICATION_TYPE": "U", "NORAD_CAT_ID": 37312, "ELEMENT_SET_NO": 999, "REV_AT_EPOCH": 86024, "BSTAR": 0.00063141, "MEAN_MOTION_DOT": 2.231e-05, "MEAN_MOTION_DDOT": 0}, "tle": {"line1": "1 37312U 93036BKC 25337.07511678  .00002231  00000+0  63141-3 0  9997", "line2": "2 37312  74.0321 222.2189 0018167 326.4091  33.5914 14.46074055860240"}}, "geometry": {"type": "Point", "coordinates": [12.47699556076158, 59.57874258642016]}}, {"type": "Feature", "properties": {"norad_id": 37316, "name": "COSMOS 2251 DEB", "group": "cosmos-2251-debris", "lat": 43.428390033116656, "lon": -155.79475311879938, "alt_km": 566.7549663609043, "timestamp": "2025-12-03T08:58:46.400593+00:00", "meta": {"OBJECT_NAME": "COSMOS 2251 DEB", "OBJECT_ID": "1993-036BKG", "EPOCH": "2025-12-03T03:33:34.875648", "MEAN_MOTION": 14.93653646, "ECCENTRICITY": 0.002429, "INCLINATION": 74.0165, "RA_OF_ASC_NODE": 40.4029, "ARG_OF_PERICENTER": 114.0887, "MEAN_ANOMALY": 246.2841, "EPHEMERIS_TYPE": 0, "CLASSIFICATION_TYPE": "U", "NORAD_CAT_ID": 37316, "ELEMENT_SET_NO": 999, "REV_AT_EPOCH": 86000, "BSTAR": 0.0008167, "MEAN_MOTION_DOT": 8.654e-05, "MEAN_MOTION_DDOT": 0}, "tle": {"line1": "1 37316U 93036BKG 25337.14832032  .00008654  00000+0  81670-3 0  9991", "line2": "2 37316  74.0165  40.4029 0024290 114.0887 246.2841 14.93653646860008"}}, "geometry": {"type": "Point", "coordinates": [-155.79475311879938, 43.428390033116656]}}, {"type": "Feature", "properties": {"norad_id": 37320, "name": "COSMOS 2251 DEB", "group": "cosmos-2251-debris", "lat": 66.2567912940783, "lon": -82.87268066696373, "alt_km": 636.4425248500083, "timestamp": "2025-12-03T08:58:46.400604+00:00", "meta": {"OBJECT_NAME": "COSMOS 2251 DEB", "OBJECT_ID": "1993-036BKL", "EPOCH": "2025-12-02T00:10:39.701280", "MEAN_MOTION": 14.78545682, "ECCENTRICITY": 0.00470256, "INCLINATION": 74.0466, "RA_OF_ASC_NODE": 239.2444, "ARG_OF_PERICENTER": 328.4287, "MEAN_ANOMALY": 31.4068, "EPHEMERIS_TYPE": 0, "CLASSIFICATION_TYPE": "U", "NORAD_CAT_ID": 37320, "ELEMENT_SET_NO": 999, "REV_AT_EPOCH": 65988, "BSTAR": 0.0011433945, "MEAN_MOTION_DOT": 8.49e-05, "MEAN_MOTION_DDOT": 0}, "tle": {"line1": "1 37320U 93036BKL 25336.00740395  .00008490  00000+0  11434-2 0  9998", "line2": "2 37320  74.0466 239.2444 0047025 328.4287  31.4068 14.78545682659882"}}, "geometry": {"type": "Point", "coordinates": [-82.87268066696373, 66.2567912940783]}}, {"type": "Feature", "properties": {"norad_id": 37326, "name": "COSMOS 2251 DEB", "group": "cosmos-2251-debris", "lat": 42.314292461751975, "lon": 157.51173787390204, "alt_km": 646.1755738592747, "timestamp": "2025-12-03T08:58:46.400613+00:00", "meta": {"OBJECT_NAME": "COSMOS 2251 DEB", "OBJECT_ID": "1993-036BKS", "EPOCH": "2025-11-27T19:17:38.237856", "MEAN_MOTION": 14.61468685, "ECCENTRICITY": 0.00552422, "INCLINATION": 74.0262, "RA_OF_ASC_NODE": 3.2841, "ARG_OF_PERICENTER": 136.8831, "MEAN_ANOMALY": 223.6683, "EPHEMERIS_TYPE": 0, "CLASSIFICATION_TYPE": "U", "NORAD_CAT_ID": 37326, "ELEMENT_SET_NO": 999, "REV_AT_EPOCH": 85265, "BSTAR": 0.00046910947, "MEAN_MOTION_DOT": 2.345e-05, "MEAN_MOTION_DDOT": 0}, "tle": {"line1": "1 37326U 93036BKS 25331.80391479  .00002345  00000+0  46911-3 0  9994", "line2": "2 37326  74.0262   3.2841 0055242 136.8831 223.6683 14.61468685852655"}}, "geometry": {"type": "Point", "coordinates": [157.51173787390204, 42.314292461751975]}}]}